{"type": "FeatureCollection", "features": [ {"type": "Feature", "properties": {"norad_id": 39019, "name": "PLEIADES 1B", "group": "resource", "lat": -54.214424092436, "lon": 83.12629597513016, "alt_km": 705.4445449093464, "timestamp": "2025-12-25T03:55:55.963174+00:00", "meta": {"OBJECT_NAME": "PLEIADES 1B", "OBJECT_ID": "2012-068A", "EPOCH": "2025-12-24T19:57:07.227360", "MEAN_MOTION": 14.5856299, "ECCENTRICITY": 0.0001151, "INCLINATION": 98.178, "RA_OF_ASC_NODE": 71.2916, "ARG_OF_PERICENTER": 85.293, "MEAN_ANOMALY": 274.8401, "EPHEMERIS_TYPE": 0, "CLASSIFICATION_TYPE": "U", "NORAD_CAT_ID": 39019, "ELEMENT_SET_NO": 999, "REV_AT_EPOCH": 69543, "BSTAR": 6.8712e-05, "MEAN_MOTION_DOT": 2.74e-06, "MEAN_MOTION_DDOT": 0}, "tle": {"line1": "1 39019U 12068A   25358.83133365  .00000274  00000+0  68712-4 0  9994", "line2": "2 39019  98.1780  71.2916 0001151  85.2930 274.8401 14.58562990695430"}}, "geometry": {"type": "Point", "coordinates": [83.12629597513016, -54.214424092436]}}, {"type": "Feature", "properties": {"norad_id": 39030, "name": "GOKTURK 2", "group": "resource", "lat": -7.6777722742516925, "lon": 19.162605680500064, "alt_km": 647.9970506979234, "timestamp": "2025-12-25T03:55:55.963206+00:00", "meta": {"OBJECT_NAME": "GOKTURK 2", "OBJECT_ID": "2012-073A", "EPOCH": "2025-12-24T20:34:24.412800", "MEAN_MOTION": 14.75307554, "ECCENTRICITY": 0.0001429, "INCLINATION": 97.6883, "RA_OF_ASC_NODE": 199.9147, "ARG_OF_PERICENTER": 106.7061, "MEAN_ANOMALY": 253.4306, "EPHEMERIS_TYPE": 0, "CLASSIFICATION_TYPE": "U", "NORAD_CAT_ID": 39030, "ELEMENT_SET_NO": 999, "REV_AT_EPOCH": 69880, "BSTAR": 0.00013732, "MEAN_MOTION_DOT": 8.83e-06, "MEAN_MOTION_DDOT": 0}, "tle": {"line1": "1 39030U 12073A   25358.85722700  .00000883  00000+0  13732-3 0  9999", "line2": "2 39030  97.6883 199.9147 0001429 106.7061 253.4306 14.75307554698800"}}, "geometry": {"type": "Point", "coordinates": [19.162605680500064, -7.6777722742516925]}}, {"type": "Feature", "properties": {"norad_id": 39084, "name": "LANDSAT 8", "group": "resource", "lat": 49.77268891043088, "lon": 57.23108152171996, "alt_km": 697.4038245623078, "timestamp": "2025-12-25T03:55:55.963219+00:00", "meta": {"OBJECT_NAME": "LANDSAT 8", "OBJECT_ID": "2013-008A", "EPOCH": "2025-12-24T19:27:39.727872", "MEAN_MOTION": 14.57114233, "ECCENTRICITY": 0.000106, "INCLINATION": 98.2056, "RA_OF_ASC_NODE": 66.7054, "ARG_OF_PERICENTER": 93.2027, "MEAN_ANOMALY": 266.9293, "EPHEMERIS_TYPE": 0, "CLASSIFICATION_TYPE": "U", "NORAD_CAT_ID": 39084, "ELEMENT_SET_NO": 999, "REV_AT_EPOCH": 67250, "BSTAR": 9.7469e-05, "MEAN_MOTION_DOT": 3.94e-06, "MEAN_MOTION_DDOT": 0}, "tle": {"line1": "1 39084U 13008A   25358.81087648  .00000394  00000+0  97469-4 0  9995", "line2": "2 39084  98.2056  66.7054 0001060  93.2027 266.9293 14.57114233672502"}}, "geometry": {"type": "Point", "coordinates": [57.23108152171996, 49.77268891043088]}}, {"type": "Feature", "properties": {"norad_id": 39086, "name": "SARAL", "group": "resource", "lat": 28.3252417670448, "lon": 178.28060962782072, "alt_km": 780.0324029848998, "timestamp": "2025-12-25T03:55:55.963230+00:00", "meta": {"OBJECT_NAME": "SARAL", "OBJECT_ID": "2013-009A", "EPOCH": "2025-12-24T19:25:06.951936", "MEAN_MOTION": 14.32761058, "ECCENTRICITY": 0.000296, "INCLINATION": 98.5503, "RA_OF_ASC_NODE": 182.582, "ARG_OF_PERICENTER": 86.009, "MEAN_ANOMALY": 274.1432, "EPHEMERIS_TYPE": 0, "CLASSIFICATION_TYPE": "U", "NORAD_CAT_ID": 39086, "ELEMENT_SET_NO": 999, "REV_AT_EPOCH": 67063, "BSTAR": 5.9338e-05, "MEAN_MOTION_DOT": 1.18e-06, "MEAN_MOTION_DDOT": 0}, "tle": {"line1": "1 39086U 13009A   25358.80910824  .00000118  00000+0  59338-4 0  9995", "line2": "2 39086  98.5503 182.5820 0002960  86.0090 274.1432 14.32761058670636"}}, "geometry": {"type": "Point", "coordinates": [178.28060962782072, 28.3252417670448]}}, {"type": "Feature", "properties": {"norad_id": 39150, "name": "GAOFEN-1", "group": "resource", "lat": -39.4718302313172, "lon": 76.19478598534842, "alt_km": 657.5612486980854, "timestamp": "2025-12-25T03:55:55.963241+00:00", "meta": {"OBJECT_NAME": "GAOFEN-1", "OBJECT_ID": "2013-018A", "EPOCH": "2025-12-24T19:58:50.973024", "MEAN_MOTION": 14.76500366, "ECCENTRICITY": 0.0018523, "INCLINATION": 97.9311, "RA_OF_ASC_NODE": 69.2771, "ARG_OF_PERICENTER": 106.3886, "MEAN_ANOMALY": 253.9362, "EPHEMERIS_TYPE": 0, "CLASSIFICATION_TYPE": "U", "NORAD_CAT_ID": 39150, "ELEMENT_SET_NO": 999, "REV_AT_EPOCH": 68251, "BSTAR": 0.00014933, "MEAN_MOTION_DOT": 9.92e-06, "MEAN_MOTION_DDOT": 0}, "tle": {"line1": "1 39150U 13018A   25358.83253441  .00000992  00000+0  14933-3 0  9996", "line2": "2 39150  97.9311  69.2771 0018523 106.3886 253.9362 14.76500366682513"}}, "geometry": {"type": "Point", "coordinates": [76.19478598534842, -39.4718302313172]}}, {"type": "Feature", "properties": {"norad_id": 39160, "name": "VNREDSAT 1", "group": "resource", "lat": -44.87312431968135, "lon": -133.9799265510999, "alt_km": 684.6841971858375, "timestamp": "2025-12-25T03:55:55.963251+00:00", "meta": {"OBJECT_NAME": "VNREDSAT 1", "OBJECT_ID": "2013-021B", "EPOCH": "2025-12-24T20:20:58.792416", "MEAN_MOTION": 14.64939085, "ECCENTRICITY": 0.0001185, "INCLINATION": 97.9353, "RA_OF_ASC_NODE": 53.6975, "ARG_OF_PERICENTER": 81.3151, "MEAN_ANOMALY": 278.8187, "EPHEMERIS_TYPE": 0, "CLASSIFICATION_TYPE": "U", "NORAD_CAT_ID": 39160, "ELEMENT_SET_NO": 999, "REV_AT_EPOCH": 67476, "BSTAR": 9.0349e-05, "MEAN_MOTION_DOT": 4.38e-06, "MEAN_MOTION_DDOT": 0}, "tle": {"line1": "1 39160U 13021B   25358.84790269  .00000438  00000+0  90349-4 0  9997", "line2": "2 39160  97.9353  53.6975 0001185  81.3151 278.8187 14.64939085674766"}}, "geometry": {"type": "Point", "coordinates": [-133.9799265510999, -44.87312431968135]}}, {"type": "Feature", "properties": {"norad_id": 39227, "name": "ARIRANG-5 (KOMPSAT-5)", "group": "resource", "lat": -82.24492830457233, "lon": -97.42298558840959, "alt_km": 561.5520347254396, "timestamp": "2025-12-25T03:55:55.963261+00:00", "meta": {"OBJECT_NAME": "ARIRANG-5 (KOMPSAT-5)", "OBJECT_ID": "2013-042A", "EPOCH": "2025-12-24T20:20:39.194304", "MEAN_MOTION": 15.04483683, "ECCENTRICITY": 0.0003057, "INCLINATION": 97.6163, "RA_OF_ASC_NODE": 182.9796, "ARG_OF_PERICENTER": 33.8235, "MEAN_ANOMALY": 326.3186, "EPHEMERIS_TYPE": 0, "CLASSIFICATION_TYPE": "U", "NORAD_CAT_ID": 39227, "ELEMENT_SET_NO": 999, "REV_AT_EPOCH": 67764, "BSTAR": 0.00019419, "MEAN_MOTION_DOT": 2.657e-05, "MEAN_MOTION_DDOT": 0}, "tle": {"line1": "1 39227U 13042A   25358.84767586  .00002657  00000+0  19419-3 0  9993", "line2": "2 39227  97.6163 182.9796 0003057  33.8235 326.3186 15.04483683677649"}}, "geometry": {"type": "Point", "coordinates": [-97.42298558840959, -82.24492830457233]}}, {"type": "Feature", "properties": {"norad_id": 39418, "name": "SKYSAT-A", "group": "resource", "lat": -62.021859391891425, "lon": -145.18444827888638, "alt_km": 528.8401640581196, "timestamp": "2025-12-25T03:55:55.963272+00:00", "meta": {"OBJECT_NAME": "SKYSAT-A", "OBJECT_ID": "2013-066C", "EPOCH": "2025-12-24T15:44:27.880800", "MEAN_MOTION": 15.11686962, "ECCENTRICITY": 0.0021602, "INCLINATION": 97.4086, "RA_OF_ASC_NODE": 48.5017, "ARG_OF_PERICENTER": 193.6235, "MEAN_ANOMALY": 166.4415, "EPHEMERIS_TYPE": 0, "CLASSIFICATION_TYPE": "U", "NORAD_CAT_ID": 39418, "ELEMENT_SET_NO": 999, "REV_AT_EPOCH": 66210, "BSTAR": 0.00019275, "MEAN_MOTION_DOT": 3.234e-05, "MEAN_MOTION_DDOT": 0}, "tle": {"line1": "1 39418U 13066C   25358.65587825  .00003234  00000+0  19275-3 0  9998", "line2": "2 39418  97.4086  48.5017 0021602 193.6235 166.4415 15.11686962662103"}}, "geometry": {"type": "Point", "coordinates": [-145.18444827888638, -62.021859391891425]}}, {"type": "Feature", "properties": {"norad_id": 39419, "name": "DUBAISAT-2", "group": "resource", "lat": -59.592212344492204, "lon": 156.31142112483016, "alt_km": 542.2669413652402, "timestamp": "2025-12-25T03:55:55.963283+00:00", "meta": {"OBJECT_NAME": "DUBAISAT-2", "OBJECT_ID": "2013-066D", "EPOCH": "2025-12-24T20:30:03.326688", "MEAN_MOTION": 15.08468654, "ECCENTRICITY": 0.0009882, "INCLINATION": 97.4464, "RA_OF_ASC_NODE": 348.8882, "ARG_OF_PERICENTER": 273.9648, "MEAN_ANOMALY": 86.0451, "EPHEMERIS_TYPE": 0, "CLASSIFICATION_TYPE": "U", "NORAD_CAT_ID": 39419, "ELEMENT_SET_NO": 999, "REV_AT_EPOCH": 66009, "BSTAR": 0.00030693, "MEAN_MOTION_DOT": 4.726e-05, "MEAN_MOTION_DDOT": 0}, "tle": {"line1": "1 39419U 13066D   25358.85420517  .00004726  00000+0  30693-3 0  9999", "line2": "2 39419  97.4464 348.8882 0009882 273.9648  86.0451 15.08468654660091"}}, "geometry": {"type": "Point", "coordinates": [156.31142112483016, -59.592212344492204]}}, {"type": "Feature", "properties": {"norad_id": 39574, "name": "GPM-CORE", "group": "resource", "lat": -44.08082556757197, "lon": 17.977503244706707, "alt_km": 432.2837746462192, "timestamp": "2025-12-25T03:55:55.963293+00:00", "meta": {"OBJECT_NAME": "GPM-CORE", "OBJECT_ID": "2014-009C", "EPOCH": "2025-12-24T19:10:10.849152", "MEAN_MOTION": 15.44648321, "ECCENTRICITY": 0.0009118, "INCLINATION": 64.9726, "RA_OF_ASC_NODE": 172.2977, "ARG_OF_PERICENTER": 250.5764, "MEAN_ANOMALY": 109.4391, "EPHEMERIS_TYPE": 0, "CLASSIFICATION_TYPE": "U", "NORAD_CAT_ID": 39574, "ELEMENT_SET_NO": 999, "REV_AT_EPOCH": 67087, "BSTAR": 0.00019069, "MEAN_MOTION_DOT": 8.7e-05, "MEAN_MOTION_DDOT": 0}, "tle": {"line1": "1 39574U 14009C   25358.79873668  .00008700  00000+0  19069-3 0  9991", "line2": "2 39574  64.9726 172.2977 0009118 250.5764 109.4391 15.44648321670870"}}, "geometry": {"type": "Point", "coordinates": [17.977503244706707, -44.08082556757197]}}]}